ONEWEB-0068             
1 45446U 20020Y   26169.83186358 -.00000246  00000+0 -72990-3 0  9996
2 45446  87.8894  20.7364 0001722  80.2934 279.8389 13.11414871302810
ONEWEB-0046             
1 45447U 20020Z   26169.28944617 -.00000012  00000+0 -70941-4 0  9992
2 45447  87.8885  20.8502 0001966  78.7806 281.3542 13.11413921302753
ONEWEB-0063             
1 45448U 20020AA  26169.62358410 -.00000431  00000+0 -12529-2 0  9992
2 45448  87.8896  20.7822 0002111  85.8555 274.2815 13.11416865302881
ONEWEB-0019             
1 45449U 20020AB  26169.81492019  .00000390  00000+0  10640-2 0  9992
2 45449  87.8888  20.7309 0001724  90.4015 269.7311 13.11415072302750
ONEWEB-0094             
1 45450U 20020AC  26169.79759446 -.00000005  00000+0 -46998-4 0  9993
2 45450  87.9140   5.5288 0001621  87.0204 273.1113 13.17648089306529
ONEWEB-0087             
1 45451U 20020AD  26169.86238081  .00000008  00000+0 -14149-4 0  9994
2 45451  87.8905  20.7095 0001642  77.2574 282.8737 13.11419632302807
ONEWEB-0082             
1 45452U 20020AE  26169.85899547 -.00000172  00000+0 -52022-3 0  9998
2 45452  87.8896  20.7266 0001804  70.3364 289.7959 13.11419809302895
ONEWEB-0050             
1 45453U 20020AF  26169.88817611  .00001629  00000+0  16519-3 0  9991
2 45453  88.9297 232.9799 0002862  23.6855 336.4505 14.90387743340632
ONEWEB-0034             
1 45454U 20020AG  26169.82027832  .00000211  00000+0  55840-3 0  9990
2 45454  87.8892  20.7438 0001824  85.0089 275.1247 13.11414622302801
ONEWEB-0060             
1 45455U 20020AH  26169.85148940 -.00000576  00000+0 -16606-2 0  9990
2 45455  87.8888  20.7356 0001203  55.0027 305.1213 13.11417508302764
ONEWEB-0086             
1 45456U 20020AJ  26169.83016987 -.00000122  00000+0 -37883-3 0  9992
2 45456  87.8893  20.7350 0001041  88.1286 271.9961 13.11414837302828
ONEWEB-0088             
1 45457U 20020AK  26169.12159896  .00000447  00000+0  12264-2 0  9995
2 45457  87.8902  20.8489 0002166  79.3221 280.8151 13.11417250302668
ONEWEB-0102             
1 47258U 20100A   26169.96365503  .00000245  00000+0  64599-3 0  9996
2 47258  87.8940 350.3218 0001629  99.1282 261.0031 13.12440765264968
ONEWEB-0109             
1 47259U 20100B   26169.89588594 -.00000077  00000+0 -24903-3 0  9996
2 47259  87.8949 350.3186 0001857  96.5493 263.5847 13.12440273264786
ONEWEB-0110             
1 47260U 20100C   26169.92298353 -.00000409  00000+0 -11720-2 0  9994
2 47260  87.8949 350.2978 0001586  91.5772 268.5538 13.12443281264953
ONEWEB-0111             
1 47261U 20100D   26169.87725471  .00000412  00000+0  11089-2 0  9995
2 47261  87.8949 350.3253 0001762  88.3488 271.7843 13.12441300264781
ONEWEB-0114             
1 47262U 20100E   26169.90775996 -.00001360  00000+0 -38174-2 0  9996
2 47262  87.8950 350.3173 0002072  95.3588 264.7777 13.12430705264740
ONEWEB-0117             
1 47263U 20100F   26169.89927278 -.00000096  00000+0 -30093-3 0  9995
2 47263  87.8948 350.3093 0001787  91.5313 268.6021 13.12442654264757
ONEWEB-0118             
1 47264U 20100G   26169.93315775  .00000023  00000+0  27534-4 0  9999
2 47264  87.8948 350.3052 0002135  91.0086 269.1288 13.12444282264955
ONEWEB-0119             
1 47265U 20100H   26169.95857657  .00000376  00000+0  10104-2 0  9996
2 47265  87.8939 350.3168 0001824  91.5403 268.5934 13.12442825264936
ONEWEB-0120             
1 47266U 20100J   26169.90618537 -.00000358  00000+0 -10299-2 0  9991
2 47266  87.8939 350.3282 0001864  97.4413 262.6928 13.12443300264953
ONEWEB-0121             
1 47267U 20100K   26169.89418989 -.00000005  00000+0 -48065-4 0  9992
2 47267  87.8950 350.3171 0001678  81.9253 278.2065 13.12442478264867
ONEWEB-0122             
1 47268U 20100L   26169.96451164  .00000208  00000+0  54164-3 0  9992
2 47268  87.8951 350.3076 0001733  96.3239 263.8087 13.12442116264783
ONEWEB-0123             
1 47269U 20100M   26169.96026550  .00000328  00000+0  87519-3 0  9993
2 47269  87.8937 350.3154 0001919  90.7418 269.3931 13.12443102264929
ONEWEB-0124             
1 47270U 20100N   26169.95010049  .00000410  00000+0  11052-2 0  9990
2 47270  87.8938 350.3205 0001761  87.6505 272.4826 13.12444335264800
ONEWEB-0125             
1 47271U 20100P   26169.92806406 -.00000294  00000+0 -85343-3 0  9995
2 47271  87.8949 350.3084 0001936  81.9374 278.1974 13.12443903264866
ONEWEB-0126             
1 47272U 20100Q   26169.94855782  .00000435  00000+0  11737-2 0  9999
2 47272  87.8941 350.3199 0001891  94.3158 265.8186 13.12442979264932
ONEWEB-0127             
1 47273U 20100R   26169.91451455  .00000877  00000+0  24038-2 0  9994
2 47273  87.8933 350.3258 0002214  99.9137 260.2242 13.12435333264958
ONEWEB-0128             
1 47274U 20100S   26169.93654345  .00000092  00000+0  21971-3 0  9993
2 47274  87.8934 350.3347 0001487  89.3152 270.8146 13.12444051264979
ONEWEB-0129             
1 47275U 20100T   26169.91621192 -.00000426  00000+0 -12206-2 0  9999
2 47275  87.8949 350.3130 0002477 115.9045 244.2339 13.12443625264901
