OBJECT_NAME,OBJECT_ID,EPOCH,MEAN_MOTION,ECCENTRICITY,INCLINATION,RA_OF_ASC_NODE,ARG_OF_PERICENTER,MEAN_ANOMALY,EPHEMERIS_TYPE,CLASSIFICATION_TYPE,NORAD_CAT_ID,ELEMENT_SET_NO,REV_AT_EPOCH,BSTAR,MEAN_MOTION_DOT,MEAN_MOTION_DDOT
ONEWEB-0068,2020-020Y,2026-06-18T19:57:53.013312,13.11414871,.00017227,87.8894,20.7364,80.2934,279.8389,0,U,45446,999,30281,-.72989564E-3,-.246E-5,0
ONEWEB-0046,2020-020Z,2026-06-18T06:56:48.149088,13.11413921,.0001966,87.8885,20.8502,78.7806,281.3542,0,U,45447,999,30275,-.70941E-4,-.12E-6,0
ONEWEB-0063,2020-020AA,2026-06-18T14:57:57.666240,13.11416865,.00021117,87.8896,20.7822,85.8555,274.2815,0,U,45448,999,30288,-.1252937E-2,-.431E-5,0
ONEWEB-0019,2020-020AB,2026-06-18T19:33:29.104416,13.11415072,.00017245,87.8888,20.7309,90.4015,269.7311,0,U,45449,999,30275,.10640449E-2,.39E-5,0
ONEWEB-0094,2020-020AC,2026-06-18T19:08:32.161344,13.17648089,.00016217,87.9140,5.5288,87.0204,273.1113,0,U,45450,999,30652,-.46998402E-4,-.5E-7,0
ONEWEB-0087,2020-020AD,2026-06-18T20:41:49.701984,13.11419632,.00016422,87.8905,20.7095,77.2574,282.8737,0,U,45451,999,30280,-.14148532E-4,.8E-7,0
ONEWEB-0082,2020-020AE,2026-06-18T20:36:57.208608,13.11419809,.00018045,87.8896,20.7266,70.3364,289.7959,0,U,45452,999,30289,-.52022467E-3,-.172E-5,0
ONEWEB-0050,2020-020AF,2026-06-18T21:18:58.415904,14.90387743,.0002862,88.9297,232.9799,23.6855,336.4505,0,U,45453,999,34063,.16518701E-3,.1629E-4,0
ONEWEB-0034,2020-020AG,2026-06-18T19:41:12.046848,13.11414622,.0001824,87.8892,20.7438,85.0089,275.1247,0,U,45454,999,30280,.55840346E-3,.211E-5,0
ONEWEB-0060,2020-020AH,2026-06-18T20:26:08.684160,13.11417508,.00012033,87.8888,20.7356,55.0027,305.1213,0,U,45455,999,30276,-.16605521E-2,-.576E-5,0
ONEWEB-0086,2020-020AJ,2026-06-18T19:55:26.676768,13.11414837,.00010412,87.8893,20.7350,88.1286,271.9961,0,U,45456,999,30282,-.37882803E-3,-.122E-5,0
ONEWEB-0088,2020-020AK,2026-06-18T02:55:06.150144,13.11417250,.0002166,87.8902,20.8489,79.3221,280.8151,0,U,45457,999,30266,.12264E-2,.447E-5,0
ONEWEB-0102,2020-100A,2026-06-18T23:07:39.794592,13.12440765,.00016299,87.8940,350.3218,99.1282,261.0031,0,U,47258,999,26496,.64599476E-3,.245E-5,0
ONEWEB-0109,2020-100B,2026-06-18T21:30:04.545216,13.12440273,.00018571,87.8949,350.3186,96.5493,263.5847,0,U,47259,999,26478,-.24902749E-3,-.77E-6,0
ONEWEB-0110,2020-100C,2026-06-18T22:09:05.776992,13.12443281,.00015861,87.8949,350.2978,91.5772,268.5538,0,U,47260,999,26495,-.11720055E-2,-.409E-5,0
ONEWEB-0111,2020-100D,2026-06-18T21:03:14.806944,13.12441300,.00017625,87.8949,350.3253,88.3488,271.7843,0,U,47261,999,26478,.11089232E-2,.412E-5,0
ONEWEB-0114,2020-100E,2026-06-18T21:47:10.460544,13.12430705,.00020726,87.8950,350.3173,95.3588,264.7777,0,U,47262,999,26474,-.38174399E-2,-.136E-4,0
ONEWEB-0117,2020-100F,2026-06-18T21:34:57.168192,13.12442654,.00017877,87.8948,350.3093,91.5313,268.6021,0,U,47263,999,26475,-.300927E-3,-.96E-6,0
ONEWEB-0118,2020-100G,2026-06-18T22:23:44.829600,13.12444282,.00021351,87.8948,350.3052,91.0086,269.1288,0,U,47264,999,26495,.27534215E-4,.23E-6,0
ONEWEB-0119,2020-100H,2026-06-18T23:00:21.015648,13.12442825,.00018241,87.8939,350.3168,91.5403,268.5934,0,U,47265,999,26493,.10104283E-2,.376E-5,0
ONEWEB-0120,2020-100J,2026-06-18T21:44:54.415968,13.12443300,.00018647,87.8939,350.3282,97.4413,262.6928,0,U,47266,999,26495,-.10298934E-2,-.358E-5,0
ONEWEB-0121,2020-100K,2026-06-18T21:27:38.006496,13.12442478,.00016784,87.8950,350.3171,81.9253,278.2065,0,U,47267,999,26486,-.48065349E-4,-.5E-7,0
ONEWEB-0122,2020-100L,2026-06-18T23:08:53.805696,13.12442116,.00017336,87.8951,350.3076,96.3239,263.8087,0,U,47268,999,26478,.54163981E-3,.208E-5,0
ONEWEB-0123,2020-100M,2026-06-18T23:02:46.939200,13.12443102,.00019191,87.8937,350.3154,90.7418,269.3931,0,U,47269,999,26492,.87518595E-3,.328E-5,0
ONEWEB-0124,2020-100N,2026-06-18T22:48:08.682336,13.12444335,.00017612,87.8938,350.3205,87.6505,272.4826,0,U,47270,999,26480,.11052496E-2,.41E-5,0
ONEWEB-0125,2020-100P,2026-06-18T22:16:24.734784,13.12443903,.00019364,87.8949,350.3084,81.9374,278.1974,0,U,47271,999,26486,-.85343055E-3,-.294E-5,0
ONEWEB-0126,2020-100Q,2026-06-18T22:45:55.395648,13.12442979,.00018919,87.8941,350.3199,94.3158,265.8186,0,U,47272,999,26493,.11736951E-2,.435E-5,0
ONEWEB-0127,2020-100R,2026-06-18T21:56:54.057120,13.12435333,.00022148,87.8933,350.3258,99.9137,260.2242,0,U,47273,999,26495,.24038228E-2,.877E-5,0
ONEWEB-0128,2020-100S,2026-06-18T22:28:37.354080,13.12444051,.00014873,87.8934,350.3347,89.3152,270.8146,0,U,47274,999,26497,.21970901E-3,.92E-6,0
ONEWEB-0129,2020-100T,2026-06-18T21:59:20.709888,13.12443625,.00024773,87.8949,350.3130,115.9045,244.2339,0,U,47275,999,26490,-.12206328E-2,-.426E-5,0
